     3.03           N                   C                   RINEX VERSION / TYPE
sbf2rin-13.4.5      RIGTC, GO PECNY     20230420 070602 UTC PGM / RUN BY / DATE 
BEIDOU NAVIGATION DATA FROM STATION GOP6 (RIGTC, GO PECNY)  COMMENT             
                                                            END OF HEADER       
C05 2023 04 20 05 00 00-4.529975121841E-04-1.458388965148E-12 0.000000000000E+00
     1.000000000000E+00 8.531875000000E+02 7.498526629447E-09 1.766742465058E-01
     2.764118835330E-05 5.912159103900E-04-2.147955819964E-05 6.493483900070E+03
     3.636000000000E+05 3.445893526077E-08-1.898256800575E+00-1.699663698673E-07
     1.072006502059E-01 6.564843750000E+02-2.154368771524E+00-6.684564153214E-09
     2.503675716715E-10 0.000000000000E+00 9.020000000000E+02
     2.000000000000E+00 0.000000000000E+00 2.000000000000E-10-9.200000000000E-09
     3.636276000000E+05 0.000000000000E+00
C07 2023 04 20 05 00 00 1.019805204123E-04-5.652989187865E-11 0.000000000000E+00
     1.000000000000E+00 3.569687500000E+02 2.475103097979E-09-1.584703099622E+00
     1.149438321590E-05 2.466072910465E-03-1.787487417459E-05 6.493447437286E+03
     3.636000000000E+05-1.676380634308E-07 1.432332590585E+00-3.501772880554E-07
     8.661329285645E-01 7.609687500000E+02-2.851464182929E+00-3.516217893160E-09
     2.778687172046E-10 0.000000000000E+00 9.020000000000E+02
     2.000000000000E+00 0.000000000000E+00 1.470000000000E-08 9.000000000000E-10
     3.636180000000E+05 0.000000000000E+00
C09 2023 04 20 03 00 00 7.472240831703E-04-4.336797587712E-11 0.000000000000E+00
     1.000000000000E+00-2.490156250000E+02 1.183263573392E-09-1.009766564602E+00
    -8.843839168549E-06 1.078707259148E-02 2.739066258073E-05 6.493675436020E+03
     3.564000000000E+05 6.379559636116E-08-4.869735252706E-01-3.073364496231E-07
     9.514351258577E-01-6.085625000000E+02-2.294394196191E+00-1.938652181216E-09
    -1.385414850947E-09 0.000000000000E+00 9.020000000000E+02
     2.000000000000E+00 0.000000000000E+00 7.100000000000E-09 3.800000000000E-09
     3.564180000000E+05 0.000000000000E+00
C10 2023 04 20 05 00 00-3.765756264329E-05-9.401368572526E-12 0.000000000000E+00
     1.000000000000E+00 3.851562500000E+02 2.464388365953E-09-2.180075201660E+00
     1.244572922587E-05 8.573392755352E-03-1.828093081713E-05 6.493586978912E+03
     3.636000000000E+05-2.998858690262E-07 1.426344707428E+00-2.933666110039E-07
     8.682584666102E-01 7.805312500000E+02-2.481307497034E+00-3.456215393816E-09
     3.553719455251E-10 0.000000000000E+00 9.020000000000E+02
     2.000000000000E+00 0.000000000000E+00 6.100000000000E-09 3.100000000000E-09
     3.636180000000E+05 0.000000000000E+00
C11 2023 04 20 05 00 00 3.102831542492E-04 2.083222483407E-11-3.930232875260E-19
     1.800000000000E+01-1.542968750000E+02 3.332638817784E-09 9.506594749887E-01
    -7.528811693192E-06 1.865216647275E-03 5.902256816626E-06 5.282636322021E+03
     3.636000000000E+05 3.166496753693E-08 2.435899884756E+00-2.840533852577E-08
     9.874252015374E-01 2.519843750000E+02-1.729770629444E+00-6.835641874779E-09
    -3.843017219950E-10 0.000000000000E+00 9.020000000000E+02
     2.000000000000E+00 0.000000000000E+00 4.100000000000E-09 1.900000000000E-09
     3.660780000000E+05 1.700000000000E+01
C12 2023 04 20 05 00 00 5.836542695761E-04 2.537614562925E-11 1.626303258728E-19
     2.100000000000E+01-1.569218750000E+02 3.336210395126E-09 1.623605065462E+00
    -7.534865289927E-06 9.635068709031E-04 6.423797458410E-06 5.282605773926E+03
     3.636000000000E+05 5.448237061501E-08 2.423737107773E+00-3.585591912270E-08
     9.858915718498E-01 2.430468750000E+02-1.615469083137E+00-6.818498303537E-09
    -3.596578383355E-10 0.000000000000E+00 9.020000000000E+02
     2.000000000000E+00 0.000000000000E+00 3.200000000000E-09 3.000000000000E-10
     3.636180000000E+05 2.000000000000E+01
C14 2023 04 20 05 00 00 1.474113669246E-04 5.140154968331E-11 8.944667923005E-19
     1.600000000000E+01 4.407812500000E+01 4.330180369393E-09-2.374169475814E+00
     2.188142389059E-06 1.404532580636E-03 4.833098500967E-06 5.282616579056E+03
     3.636000000000E+05-5.681067705154E-08-1.789308283644E+00-2.514570951462E-08
     9.698408633191E-01 2.700468750000E+02-4.994711451837E-01-7.019220950156E-09
     4.075169747177E-10 0.000000000000E+00 9.020000000000E+02
     2.000000000000E+00 0.000000000000E+00 6.300000000000E-09 1.800000000000E-09
     3.636180000000E+05 2.000000000000E+00
C23 2023 04 20 05 00 00-9.094740962610E-04-7.950973213156E-12 0.000000000000E+00
     1.000000000000E+00 9.350000000000E+01 3.796586714504E-09 1.502175823858E+00
     4.567205905914E-06 6.474857218564E-05 1.253979280591E-05 5.282629566193E+03
     3.636000000000E+05 1.769512891769E-08 3.091277651894E-01-2.747401595116E-08
     9.465312035553E-01 9.654687500000E+01-1.318155444980E+00-6.793854419878E-09
    -3.142988060926E-11 0.000000000000E+00 9.020000000000E+02
     2.000000000000E+00 0.000000000000E+00 2.270000000000E-08 2.270000000000E-08
     3.636180000000E+05 1.000000000000E+00
C24 2023 04 20 05 00 00-1.500111538917E-04 4.553690757803E-11 0.000000000000E+00
     1.000000000000E+00 1.005156250000E+02 3.623722371153E-09 1.033057011863E+00
     4.947651177645E-06 5.804568063468E-04 1.373607665300E-05 5.282657613754E+03
     3.636000000000E+05-2.142041921616E-08 3.089435091944E-01-3.771856427193E-08
     9.465249568951E-01 7.435937500000E+01 7.409336183335E-01-6.707422248202E-09
    -3.643008888800E-11 0.000000000000E+00 9.020000000000E+02
     2.000000000000E+00 0.000000000000E+00 4.700000000000E-09 4.700000000000E-09
     3.636180000000E+05 1.000000000000E+00
C25 2023 04 20 05 00 00 1.102738315240E-04 7.654321620976E-12 0.000000000000E+00
     1.000000000000E+00 9.071875000000E+01 3.755513575072E-09 2.791640415600E-01
     4.567671567202E-06 4.674368537962E-04 1.285877078772E-05 5.282632337570E+03
     3.636000000000E+05 1.862645149231E-09 2.846747149874E-01 3.213062882423E-08
     9.479826026177E-01 9.148437500000E+01 6.574729481702E-01-6.734923393736E-09
    -3.285851154604E-11 0.000000000000E+00 9.020000000000E+02
     2.000000000000E+00 0.000000000000E+00 1.200000000000E-09 1.200000000000E-09
     3.636180000000E+05 1.000000000000E+00
C26 2023 04 20 05 00 00-1.088181743398E-04-5.560885085742E-12 0.000000000000E+00
     1.000000000000E+00 1.170937500000E+02 3.671581507536E-09 1.901569515660E+00
     5.549751222134E-06 7.853659335524E-04 1.406762748957E-05 5.282630704880E+03
     3.636000000000E+05 2.700835466385E-08 2.852679516752E-01-4.656612873077E-08
     9.480332824887E-01 6.948437500000E+01 6.006283418270E-01-6.683492680011E-09
    -8.357490980188E-11 0.000000000000E+00 9.020000000000E+02
     2.000000000000E+00 0.000000000000E+00-4.400000000000E-09-4.400000000000E-09
     3.636180000000E+05 1.000000000000E+00
C29 2023 04 20 04 00 00 1.095174811780E-04 5.093703236980E-12 0.000000000000E+00
     1.000000000000E+00-1.531093750000E+02 3.862303737596E-09 2.566709051335E-01
    -7.673632353544E-06 2.926437882707E-04 6.281305104494E-06 5.282620962143E+03
     3.600000000000E+05 3.585591912270E-08 2.374998703132E+00 2.700835466385E-08
     9.614027913367E-01 2.324062500000E+02 1.207730277557E+00-7.098152809413E-09
    -4.103742365913E-10 0.000000000000E+00 9.020000000000E+02
     2.000000000000E+00 0.000000000000E+00 1.000000000000E-10 1.000000000000E-10
     3.600180000000E+05 1.000000000000E+00
C32 2023 04 20 05 00 00-5.758118350059E-04 6.857625578505E-12 0.000000000000E+00
     1.000000000000E+00 4.435937500000E+01 4.280535444340E-09 2.489618306847E+00
     2.230517566204E-06 7.237476529554E-04 4.295259714127E-06 5.282617355347E+03
     3.636000000000E+05 1.024454832077E-07-1.794736684021E+00 4.656612873077E-08
     9.712301819898E-01 2.790781250000E+02-1.061088236801E+00-7.132439951896E-09
     3.614436270064E-10 0.000000000000E+00 9.020000000000E+02
     2.000000000000E+00 0.000000000000E+00-7.200000000000E-09-7.200000000000E-09
     3.636180000000E+05 1.000000000000E+00
C33 2023 04 20 05 00 00-8.747915271670E-04-2.399858090030E-12 0.000000000000E+00
     1.000000000000E+00 4.585937500000E+01 4.280892602074E-09-2.673351471019E+00
     2.321787178516E-06 5.460046231747E-04 4.669651389122E-06 5.282615676880E+03
     3.636000000000E+05-4.004687070847E-08-1.794868931815E+00-2.142041921616E-08
     9.712633346393E-01 2.730781250000E+02-6.063390707647E-01-6.992791277825E-09
     4.332323315798E-10 0.000000000000E+00 9.020000000000E+02
     2.000000000000E+00 0.000000000000E+00-4.440000000000E-08-4.440000000000E-08
     3.636180000000E+05 1.000000000000E+00
C35 2023 04 20 05 00 00 6.427731132135E-04-6.973088773066E-12 0.000000000000E+00
     1.000000000000E+00-1.543437500000E+02 3.844445850887E-09 6.744389357860E-01
    -7.607974112034E-06 9.198172483593E-04 6.075482815504E-06 5.282670408249E+03
     3.636000000000E+05-3.725290298462E-09 2.377304109881E+00 3.771856427193E-08
     9.595864615078E-01 2.369218750000E+02 4.682830703038E-01-7.081009238172E-09
    -4.250177036933E-10 0.000000000000E+00 9.020000000000E+02
     2.000000000000E+00 0.000000000000E+00-2.400000000000E-09-2.400000000000E-09
     3.636180000000E+05 1.000000000000E+00
C25 2023 04 20 06 00 00 1.103004906327E-04 7.552181102710E-12 0.000000000000E+00
     1.000000000000E+00 9.659375000000E+01 3.691582340651E-09 7.632407593555E-01
     4.859641194344E-06 4.692192887887E-04 1.368392258883E-05 5.282637058258E+03
     3.672000000000E+05-9.313225746155E-09 2.846505548953E-01 1.583248376846E-08
     9.479824899730E-01 7.484375000000E+01 6.609608257514E-01-6.731351816394E-09
    -4.714482091388E-11 0.000000000000E+00 9.020000000000E+02
     2.000000000000E+00 0.000000000000E+00 1.200000000000E-09 1.200000000000E-09
     3.672180000000E+05 1.000000000000E+00
